FENGYUN 1C DEB          
1 32372U 99025CZR 26094.34173888  .00001793  00000+0  19568-2 0  9995
2 32372  97.3081 308.9630 0457220 107.2596 257.9093 13.35776647616430
FENGYUN 1C DEB          
1 32409U 99025CZV 26092.29528883  .00028811  00000+0  37083-2 0  9999
2 32409  99.5719 281.8551 0037491 173.7312   4.2448 14.80553482604729
FENGYUN 1C DEB          
1 32411U 99025CZX 26094.22689751  .00000891  00000+0  49049-3 0  9993
2 32411  98.4293  10.1516 0124383  54.8821 306.3935 14.10027958673991
FENGYUN 1C DEB          
1 32414U 99025DAA 26092.94201237  .00003662  00000+0  17534-2 0  9994
2 32414  98.8439 168.4075 0045560  42.7342 317.7362 14.19110080953090
FENGYUN 1C DEB          
1 32419U 99025DAF 26090.54354115  .00001554  00000+0  61707-3 0  9997
2 32419  97.9546  18.3906 0283285  73.3781 289.8293 14.10265725651045
FENGYUN 1C DEB          
1 32422U 99025DAJ 26095.59344088  .00000556  00000+0  28539-3 0  9996
2 32422  97.8501 215.8290 0297729 328.2579  30.0935 13.98231122647249
FENGYUN 1C DEB          
1 32425U 99025DAM 26093.60166162  .00001194  00000+0  46861-3 0  9991
2 32425  96.7142 219.6628 0230865 321.8857  36.6185 14.17112509711198
FENGYUN 1C DEB          
1 32430U 99025DAS 26092.32127036  .00003764  00000+0  26476-2 0  9996
2 32430  98.6862 111.7423 0366094 336.4557  22.0195 13.70965712927180
FENGYUN 1C DEB          
1 32432U 99025DAU 26095.06231323  .00007222  00000+0  14127-2 0  9990
2 32432  98.1560 133.4453 0167103 316.1574  42.6458 14.54592758723419
FENGYUN 1C DEB          
1 32440U 99025DBC 26083.31244188  .00002697  00000+0  25156-2 0  9992
2 32440  99.1527 297.4533 0320930 189.1106 170.4125 13.62011978616689
FENGYUN 1C DEB          
1 32441U 99025DBD 26089.46332375  .00002689  00000+0  11630-2 0  9994
2 32441  97.7817 164.8991 0247695 355.3743   4.5143 14.09938431960954
FENGYUN 1C DEB          
1 32447U 99025DBK 26088.28899197  .00000061  00000+0  73061-4 0  9999
2 32447  98.9261 106.1867 0080284 107.5290 253.4665 13.96079392693651
FENGYUN 1C DEB          
1 32451U 99025DBP 26090.20521348  .00003470  00000+0  26127-2 0  9995
2 32451  99.9852  82.2279 0183797 270.5828  87.4270 13.87405090632686
FENGYUN 1C DEB          
1 32453U 99025DBR 26093.02441799  .00001290  00000+0  83345-3 0  9995
2 32453  99.3714  10.8799 0096225 261.6029  97.4218 14.02573576949885
FENGYUN 1C DEB          
1 32455U 99025DBT 26091.89908377  .00003507  00000+0  21783-2 0  9990
2 32455 101.7319 318.2647 0234788 232.9860 124.9602 13.93299756659497
FENGYUN 1C DEB          
1 32456U 99025DBU 26092.20901371  .00000967  00000+0  13627-2 0  9999
2 32456 103.6762 274.7282 0374184 359.9261   0.1742 13.35893194620919
