[{"OBJECT_NAME":"FENGYUN 1C DEB","OBJECT_ID":"1999-025CZR","EPOCH":"2026-04-04T08:12:06.239232","MEAN_MOTION":13.35776647,"ECCENTRICITY":0.04572206,"INCLINATION":97.3081,"RA_OF_ASC_NODE":308.963,"ARG_OF_PERICENTER":107.2596,"MEAN_ANOMALY":257.9093,"EPHEMERIS_TYPE":0,"CLASSIFICATION_TYPE":"U","NORAD_CAT_ID":32372,"ELEMENT_SET_NO":999,"REV_AT_EPOCH":61643,"BSTAR":0.0019568003,"MEAN_MOTION_DOT":1.793e-5,"MEAN_MOTION_DDOT":0},{"OBJECT_NAME":"FENGYUN 1C DEB","OBJECT_ID":"1999-025CZV","EPOCH":"2026-04-02T07:05:12.954912","MEAN_MOTION":14.80553482,"ECCENTRICITY":0.00374911,"INCLINATION":99.5719,"RA_OF_ASC_NODE":281.8551,"ARG_OF_PERICENTER":173.7312,"MEAN_ANOMALY":4.2448,"EPHEMERIS_TYPE":0,"CLASSIFICATION_TYPE":"U","NORAD_CAT_ID":32409,"ELEMENT_SET_NO":999,"REV_AT_EPOCH":60472,"BSTAR":0.0037083085,"MEAN_MOTION_DOT":0.00028811,"MEAN_MOTION_DDOT":0},{"OBJECT_NAME":"FENGYUN 1C DEB","OBJECT_ID":"1999-025CZX","EPOCH":"2026-04-04T05:26:43.944864","MEAN_MOTION":14.10027958,"ECCENTRICITY":0.01243832,"INCLINATION":98.4293,"RA_OF_ASC_NODE":10.1516,"ARG_OF_PERICENTER":54.8821,"MEAN_ANOMALY":306.3935,"EPHEMERIS_TYPE":0,"CLASSIFICATION_TYPE":"U","NORAD_CAT_ID":32411,"ELEMENT_SET_NO":999,"REV_AT_EPOCH":67399,"BSTAR":0.00049048765,"MEAN_MOTION_DOT":8.91e-6,"MEAN_MOTION_DDOT":0},{"OBJECT_NAME":"FENGYUN 1C DEB","OBJECT_ID":"1999-025DAA","EPOCH":"2026-04-02T22:36:29.868768","MEAN_MOTION":14.1911008,"ECCENTRICITY":0.00455605,"INCLINATION":98.8439,"RA_OF_ASC_NODE":168.4075,"ARG_OF_PERICENTER":42.7342,"MEAN_ANOMALY":317.7362,"EPHEMERIS_TYPE":0,"CLASSIFICATION_TYPE":"U","NORAD_CAT_ID":32414,"ELEMENT_SET_NO":999,"REV_AT_EPOCH":95309,"BSTAR":0.0017534265,"MEAN_MOTION_DOT":3.662e-5,"MEAN_MOTION_DDOT":0},{"OBJECT_NAME":"FENGYUN 1C DEB","OBJECT_ID":"1999-025DAF","EPOCH":"2026-03-31T13:02:41.955360","MEAN_MOTION":14.10265725,"ECCENTRICITY":0.0283285,"INCLINATION":97.9546,"RA_OF_ASC_NODE":18.3906,"ARG_OF_PERICENTER":73.3781,"MEAN_ANOMALY":289.8293,"EPHEMERIS_TYPE":0,"CLASSIFICATION_TYPE":"U","NORAD_CAT_ID":32419,"ELEMENT_SET_NO":999,"REV_AT_EPOCH":65104,"BSTAR":0.00061707,"MEAN_MOTION_DOT":1.554e-5,"MEAN_MOTION_DDOT":0},{"OBJECT_NAME":"FENGYUN 1C DEB","OBJECT_ID":"1999-025DAJ","EPOCH":"2026-04-05T14:14:33.292032","MEAN_MOTION":13.98231122,"ECCENTRICITY":0.02977297,"INCLINATION":97.8501,"RA_OF_ASC_NODE":215.829,"ARG_OF_PERICENTER":328.2579,"MEAN_ANOMALY":30.0935,"EPHEMERIS_TYPE":0,"CLASSIFICATION_TYPE":"U","NORAD_CAT_ID":32422,"ELEMENT_SET_NO":999,"REV_AT_EPOCH":64724,"BSTAR":0.00028539087,"MEAN_MOTION_DOT":5.56e-6,"MEAN_MOTION_DDOT":0},{"OBJECT_NAME":"FENGYUN 1C DEB","OBJECT_ID":"1999-025DAM","EPOCH":"2026-04-03T14:26:23.563968","MEAN_MOTION":14.17112509,"ECCENTRICITY":0.02308657,"INCLINATION":96.7142,"RA_OF_ASC_NODE":219.6628,"ARG_OF_PERICENTER":321.8857,"MEAN_ANOMALY":36.6185,"EPHEMERIS_TYPE":0,"CLASSIFICATION_TYPE":"U","NORAD_CAT_ID":32425,"ELEMENT_SET_NO":999,"REV_AT_EPOCH":71119,"BSTAR":0.00046861145,"MEAN_MOTION_DOT":1.194e-5,"MEAN_MOTION_DDOT":0},{"OBJECT_NAME":"FENGYUN 1C DEB","OBJECT_ID":"1999-025DAS","EPOCH":"2026-04-02T07:42:37.759104","MEAN_MOTION":13.70965712,"ECCENTRICITY":0.03660949,"INCLINATION":98.6862,"RA_OF_ASC_NODE":111.7423,"ARG_OF_PERICENTER":336.4557,"MEAN_ANOMALY":22.0195,"EPHEMERIS_TYPE":0,"CLASSIFICATION_TYPE":"U","NORAD_CAT_ID":32430,"ELEMENT_SET_NO":999,"REV_AT_EPOCH":92718,"BSTAR":0.0026476307,"MEAN_MOTION_DOT":3.764e-5,"MEAN_MOTION_DDOT":0},{"OBJECT_NAME":"FENGYUN 1C DEB","OBJECT_ID":"1999-025DAU","EPOCH":"2026-04-05T01:29:43.863072","MEAN_MOTION":14.54592758,"ECCENTRICITY":0.01671034,"INCLINATION":98.156,"RA_OF_ASC_NODE":133.4453,"ARG_OF_PERICENTER":316.1574,"MEAN_ANOMALY":42.6458,"EPHEMERIS_TYPE":0,"CLASSIFICATION_TYPE":"U","NORAD_CAT_ID":32432,"ELEMENT_SET_NO":999,"REV_AT_EPOCH":72341,"BSTAR":0.0014126879,"MEAN_MOTION_DOT":7.222e-5,"MEAN_MOTION_DDOT":0},{"OBJECT_NAME":"FENGYUN 1C DEB","OBJECT_ID":"1999-025DBC","EPOCH":"2026-03-24T07:29:54.978432","MEAN_MOTION":13.62011978,"ECCENTRICITY":0.03209305,"INCLINATION":99.1527,"RA_OF_ASC_NODE":297.4533,"ARG_OF_PERICENTER":189.1106,"MEAN_ANOMALY":170.4125,"EPHEMERIS_TYPE":0,"CLASSIFICATION_TYPE":"U","NORAD_CAT_ID":32440,"ELEMENT_SET_NO":999,"REV_AT_EPOCH":61668,"BSTAR":0.0025156425,"MEAN_MOTION_DOT":2.697e-5,"MEAN_MOTION_DDOT":0},{"OBJECT_NAME":"FENGYUN 1C DEB","OBJECT_ID":"1999-025DBD","EPOCH":"2026-03-30T11:07:11.172000","MEAN_MOTION":14.09938431,"ECCENTRICITY":0.02476957,"INCLINATION":97.7817,"RA_OF_ASC_NODE":164.8991,"ARG_OF_PERICENTER":355.3743,"MEAN_ANOMALY":4.5143,"EPHEMERIS_TYPE":0,"CLASSIFICATION_TYPE":"U","NORAD_CAT_ID":32441,"ELEMENT_SET_NO":999,"REV_AT_EPOCH":96095,"BSTAR":0.001163002,"MEAN_MOTION_DOT":2.689e-5,"MEAN_MOTION_DDOT":0},{"OBJECT_NAME":"FENGYUN 1C DEB","OBJECT_ID":"1999-025DBK","EPOCH":"2026-03-29T06:56:08.906208","MEAN_MOTION":13.96079392,"ECCENTRICITY":0.00802845,"INCLINATION":98.9261,"RA_OF_ASC_NODE":106.1867,"ARG_OF_PERICENTER":107.529,"MEAN_ANOMALY":253.4665,"EPHEMERIS_TYPE":0,"CLASSIFICATION_TYPE":"U","NORAD_CAT_ID":32447,"ELEMENT_SET_NO":999,"REV_AT_EPOCH":69365,"BSTAR":7.306051e-5,"MEAN_MOTION_DOT":6.1e-7,"MEAN_MOTION_DDOT":0},{"OBJECT_NAME":"FENGYUN 1C DEB","OBJECT_ID":"1999-025DBP","EPOCH":"2026-03-31T04:55:30.444672","MEAN_MOTION":13.8740509,"ECCENTRICITY":0.0183797,"INCLINATION":99.9852,"RA_OF_ASC_NODE":82.2279,"ARG_OF_PERICENTER":270.5828,"MEAN_ANOMALY":87.427,"EPHEMERIS_TYPE":0,"CLASSIFICATION_TYPE":"U","NORAD_CAT_ID":32451,"ELEMENT_SET_NO":999,"REV_AT_EPOCH":63268,"BSTAR":0.00261266,"MEAN_MOTION_DOT":3.47e-5,"MEAN_MOTION_DDOT":0},{"OBJECT_NAME":"FENGYUN 1C DEB","OBJECT_ID":"1999-025DBR","EPOCH":"2026-04-03T00:35:09.714336","MEAN_MOTION":14.02573576,"ECCENTRICITY":0.00962252,"INCLINATION":99.3714,"RA_OF_ASC_NODE":10.8799,"ARG_OF_PERICENTER":261.6029,"MEAN_ANOMALY":97.4218,"EPHEMERIS_TYPE":0,"CLASSIFICATION_TYPE":"U","NORAD_CAT_ID":32453,"ELEMENT_SET_NO":999,"REV_AT_EPOCH":94988,"BSTAR":0.00083345289,"MEAN_MOTION_DOT":1.29e-5,"MEAN_MOTION_DDOT":0},{"OBJECT_NAME":"FENGYUN 1C DEB","OBJECT_ID":"1999-025DBT","EPOCH":"2026-04-01T21:34:40.837728","MEAN_MOTION":13.93299756,"ECCENTRICITY":0.02347889,"INCLINATION":101.7319,"RA_OF_ASC_NODE":318.2647,"ARG_OF_PERICENTER":232.986,"MEAN_ANOMALY":124.9602,"EPHEMERIS_TYPE":0,"CLASSIFICATION_TYPE":"U","NORAD_CAT_ID":32455,"ELEMENT_SET_NO":999,"REV_AT_EPOCH":65949,"BSTAR":0.0021782909,"MEAN_MOTION_DOT":3.507e-5,"MEAN_MOTION_DDOT":0},{"OBJECT_NAME":"FENGYUN 1C DEB","OBJECT_ID":"1999-025DBU","EPOCH":"2026-04-02T05:00:58.784544","MEAN_MOTION":13.35893194,"ECCENTRICITY":0.03741842,"INCLINATION":103.6762,"RA_OF_ASC_NODE":274.7282,"ARG_OF_PERICENTER":359.9261,"MEAN_ANOMALY":0.1742,"EPHEMERIS_TYPE":0,"CLASSIFICATION_TYPE":"U","NORAD_CAT_ID":32456,"ELEMENT_SET_NO":999,"REV_AT_EPOCH":62091,"BSTAR":0.0013627399,"MEAN_MOTION_DOT":9.67e-6,"MEAN_MOTION_DDOT":0}]
